,Name,Address,Latitude,Longitude
0,yessenia's market,3348 Washington St,42.307427,-71.106211
1,yachris market,143 Boylston St,42.316397,-71.103111
2,y'nk mini market,248 Market St,42.354218,-71.150092
3,world's best food & vegetarian products,645 River St,42.265033,-71.09961
4,wollastons market 2,460 Parker St,42.33769,-71.092214
5,wollastons market 1,360 Huntington Ave,42.340077,-71.088891
6,wolcott general store,171 Wolcott Sq,42.237229,-71.132634
7,whole foods market,15 Washington St,42.342817,-71.140381
8,whole foods market,15 Westland Ave,42.343927,-71.087369
9,whole foods market,413 Centre St,42.32143,-71.11091
10,whole foods market,181 Cambridge St,42.362108,-71.065981
11,whole foods market,348 Harrison Ave,42.345169,-71.062833
12,whole foods market,51 Austin St,42.25944,-71.12576
13,westland market,56 Westland Ave,42.343497,-71.088501
14,warren market,256 Warren St,42.322021,-71.08175
15,walnut market,66 Walnut Park,42.31787,-71.099927
16,vinni's mini market,3 Gladstone St,42.389214,-70.999462
17,villas market,152 Sumner St,42.369627,-71.041031
18,villa's market,49 Magazine St,42.32608,-71.07234
19,villa victoria market,65 W Dedham St,42.341844,-71.072391
20,upham's corner market,521 Columbia Rd,42.315177,-71.066541
21,troung thinh 2,1305 Dorchester Ave,42.306175,-71.05905
22,tropic market,1007 Blue Hill Ave,42.289994,-71.089814
23,trader joe's,199 N Harvard St,42.363502,-71.129699
24,trader joe's,44 Thomson Pl,42.351778,-71.047363
25,trader joe's,899 Boylston St,42.3485,-71.08412
26,trader joe's,160 Federal St,42.354066,-71.055926
27,tony's market,4381 Washington St,42.282157,-71.132991
28,todesca's market & deli,4441 Washington St,42.28084,-71.13438
29,tienda taqueria,257 Princeton St,42.379575,-71.029909
30,the village market,30 Corinth St,42.286215,-71.129537
31,the station grocery,9 Maverick Sq,42.36892,-71.03925
32,tesorito market,465 Meridian St,42.382507,-71.039091
33,teresa market inc,571 Washington St,42.35022,-71.1648
34,tejeda family market inc,1435 Blue Hill Ave,42.275587,-71.093831
35,tedeschi food shops,157 Brighton Ave,42.353257,-71.132309
36,t & d market,4545 Washington St,42.278303,-71.13723
37,symphony mart,1130 Boylston St,42.346706,-71.089012
38,symphony market,1130 Boylston St,42.346706,-71.089012
39,super stop & shop,1100 Massachusetts Ave,42.326467,-71.065495
40,super stop & shop,60 Everett St,42.35654,-71.13923
41,super ahorro grocery & food,300 Bennington St,42.37918,-71.02828
42,sunrise market,152 Brighton Ave,42.352777,-71.132251
43,sun wing llc,27 Harrison Ave,42.351815,-71.061444
44,stop & shop supermarket,1620 Tremont St,42.333677,-71.103991
45,stop & shop supermarket,1025 Truman Hwy,42.355492,-71.048611
46,stop & shop supermarket,460 Blue Hill Ave,42.30918,-71.081174
47,stop & shop supermarket,545 Freeport St,42.292539,-71.048731
48,stop & shop supermarket,950 American Legion Hwy,42.274993,-71.11478
49,stop & shop supermarket,713 E Broadway,42.335311,-71.036652
50,stop & shop supermarket,301 Centre St,42.324091,-71.103151
51,start super market,485 Cambridge St,42.353821,-71.137219
52,star supermarkets inc,45 William T Morrissey Blvd,42.318262,-71.050673
53,star market,4 River St,42.271947,-71.069701
54,star market,45 William T Morrissey Blvd,42.318262,-71.050673
55,star market,370 Western Ave,42.360931,-71.137638
56,star market,33 Kilmarnock St,42.343619,-71.10014
57,star market,75 Spring St,42.27871,-71.1633
58,star market,1065 Commonwealth Ave,42.352579,-71.12358
59,south end formaggio,268 Shawmut Ave,42.343102,-71.06862
60,south east market,210 Harrison Ave,42.347943,-71.062127
61,south boston market,626 Dorchester Ave,42.328477,-71.056691
62,snacks express,60 South St,42.351834,-71.056861
63,shawmut grocery inc,614 Shawmut Ave,42.335467,-71.080471
64,shaw's supermarket,246 Border St,42.376675,-71.040256
65,shaw's supermarket,1377 Hyde Park Ave,42.251737,-71.125691
66,shaw's,255 Border St,42.37669,-71.03968
67,seven 86 market inc,249 Blue Hill Ave,42.316107,-71.078391
68,savenor's market,160 Charles St,42.360371,-71.07104
69,save-a-lot food stores,330 Martin Luther King Blvd,42.318533,-71.082368
70,save-a-lot food stores,650 American Legion Hwy,42.284052,-71.110861
71,sava's market,150 Bennington St,42.377002,-71.033574
72,sagarino's,106 South St,42.351085,-71.057151
73,ruiz market,3 Blue Hill Ave,42.325098,-71.075339
74,ruggieros market,3345 Washington St,42.309719,-71.104592
75,roxtar foods ltd,1200 Washington St,42.343047,-71.066391
76,rossi market,430 Geneva Ave,42.300587,-71.06637
77,roslindale market,4140 Washington St,42.288447,-71.125741
78,rosely's groceries,120 Washington St,42.34468,-71.14504
79,roche bros,1800 Centre St,42.287187,-71.152539
80,roche bros,8 Summer St,42.355435,-71.059907
81,river park food mart,1503 River St,42.25045,-71.13106
82,richdale food shops,120 Byron St,42.383862,-71.016203
83,richdale food shops,2195 Commonwealth Ave,42.340297,-71.166489
84,rescor of quincy market inc,1 Faneuil Hall Market Pl,42.355492,-71.048611
85,regency centers,185 Franklin St,42.355711,-71.055027
86,reds best,100 Hanover St,42.362177,-71.057491
87,r & r food market,4355 Washington St,42.283012,-71.132103
88,quality meat market,13 Corinth St,42.286349,-71.130329
89,quality market,140 N Beacon St,42.355177,-71.145837
90,prince pantry,101 Prince St,42.365873,-71.05642
91,primo market corp,1349 Blue Hill Ave,42.355492,-71.048611
92,price rite,870 River St,42.261924,-71.107714
93,portuguese american market,682 Tremont St,42.340972,-71.07665
94,portillo food market,44 Brooks St,42.37606,-71.03268
95,portillo brothers market,60 Maverick St,42.371213,-71.040969
96,plop plop market,532 River St,42.267087,-71.094601
97,pleasant view market,1 Savin Hill Ave,42.312632,-71.058689
98,pleasant & main c town,1 Pleasant St,42.374055,-71.063001
99,playstages inc,685 Centre St,42.312067,-71.114481
100,pina's grocery store inc,1985A Columbus Ave,42.315037,-71.097808
101,pimentel market,340 Centre St,42.32241,-71.10656
102,phu thinh market phu,1826 Dorchester Ave,42.355492,-71.048611
103,phu coung market,1188 Dorchester Ave,42.310033,-71.057453
104,people's tropical food,576 Washington St,42.349995,-71.165224
105,pavilion global markets,50 Federal St,42.35597,-71.05632
106,park ave market,631 Hyde Park Ave,42.278867,-71.119401
107,paradise market,517 Warren St,42.313399,-71.083809
108,papi s market,3145 Washington St,42.314087,-71.100354
109,ortiz grocery,1300 Blue Hill Ave,42.279252,-71.0928
110,orient heights food market,1014 Bennington St,42.387097,-71.006281
111,omega foods,145 Dartmouth St,42.347926,-71.075601
112,nuevo mundo food market,192 Maverick St,42.369257,-71.036541
113,navarrette grocery,451 Columbia Rd,42.312937,-71.067981
114,ms elizabeth market,2825 Washington St,42.321306,-71.092737
115,monumental market,36 South St,42.308417,-71.115361
116,moabonguito grocery store,219 Dudley St,42.328387,-71.080681
117,ming's supermarket,1102 Washington St,42.344269,-71.065308
118,millennium market,496 Blue Hill Ave,42.307155,-71.08373
119,milanos delicatessen,978 Saratoga St,42.387026,-71.007352
120,midtown markets,175 William F McClellan Hwy,42.386209,-71.018555
121,merkato llc,1127 Harrison Ave,42.330464,-71.082032
122,meridian food market,121 Meridian St,42.37326,-71.03884
123,meat & fish market,88 Blackstone St,42.361437,-71.056311
124,meal hackers inc,398 Columbus Ave,42.344547,-71.076381
125,mayfair foods inc,506 Cambridge St,42.35311,-71.137919
126,marlboro market,45 Massachusetts Ave,42.34988,-71.0893
127,market anthony's,66 Walnut Park,42.31787,-71.099927
128,marino's market,1245 VFW Pkwy,42.277457,-71.172651
129,marias market,1760 Dorchester Ave,42.289897,-71.062971
130,marcella market,80 Marcella St,42.323686,-71.095798
131,mamas timarchee,556 River St,42.266459,-71.095908
132,luzelena market,305 Dudley St,42.327686,-71.07767
133,lord jeff's beef place,129 Newmarket Sq,42.330468,-71.066764
134,lluvia market,1985 Columbus Ave,42.315037,-71.097808
135,llanera supermarket,260 E 8th St,42.355492,-71.048611
136,liriano brothers market,156 Bunker Hill St,42.378283,-71.06089
137,linden's superette,101 Brighton Ave,42.353099,-71.130625
138,lee's supermarket,1581 Commonwealth Ave,42.34429,-71.143041
139,lee's 2 market,1383 Commonwealth Ave,42.348817,-71.13736
140,las villas market,78 Mozart St,42.320101,-71.103985
141,las americas market,970 Blue Hill Ave,42.290857,-71.088911
142,lambert's marketplace,140 Tremont St,42.355647,-71.062559
143,la peraviana,3099 Washington St,42.315327,-71.099011
144,la familia market,64A Blue Hill Ave,42.322876,-71.076399
145,la chapi market,113 Blue Hill Ave,42.321097,-71.077761
146,la caja market,353 Meridian St,42.378617,-71.038991
147,la bendicion,32 Bennington St,42.375467,-71.037881
148,l a gran parada dudley market,561 Dudley St,42.32094,-71.072669
149,krisna janak inc,232 Sumner St,42.368753,-71.039006
150,kikka sushi noodle house,348 Harrison Ave,42.345169,-71.062833
151,karen market,41 Bennington St,42.375377,-71.037321
152,k 8 market,362 K St,42.331344,-71.037072
153,jp convience store,36 Gay Head St,42.325029,-71.105073
154,johnny's market,1758 River St,42.243922,-71.138059
155,joanna's market,710 Washington St,42.350667,-71.062771
156,jim's variety,256 W 5th St,42.355492,-71.048611
157,jia ho supermarket,692 Washington St,42.352077,-71.1721
158,jf family market inc,1435 Blue Hill Ave,42.275587,-71.093831
159,imported foods,474 Dorchester Ave,42.332475,-71.056267
160,ideal food basket,576 Washington St,42.349995,-71.165224
161,ideal food basket,217 Bowdoin St,42.305548,-71.067542
162,ideal food basket,926 Cummins Hwy,42.267952,-71.094469
163,ideal food basket,942 Hyde Park Ave,42.26759,-71.119887
164,ideal food basket,500 Geneva Ave,42.298797,-71.062961
165,hyde park market corp inc,613 Park St,42.294607,-71.078001
166,huntington markets,818 Huntington Ave,42.333022,-71.108734
167,hong kong supermarket hong,1095 Commonwealth Ave,42.352384,-71.1253
168,herny s market,892 South St,42.288521,-71.134642
169,happy market,868 Blue Hill Ave,42.295099,-71.087507
170,happy family food market,11 Hudson St,42.350861,-71.060222
171,hancock street market & multi,95 Hancock St,42.312435,-71.064499
172,hamdi alal market,1433 Tremont St,42.33189,-71.096426
173,grove hall foods corp,479 Blue Hill Ave,42.3088,-71.083338
174,green street supermarket,186 Green St,42.310037,-71.105651
175,greek international food market,5204 Washington St,42.260794,-71.157123
176,greater good retail market,170 Hamilton St,42.305977,-71.066431
177,great corner market,399 Saratoga St,42.378997,-71.029601
178,going bananas,64 Salem St,42.363357,-71.056151
179,glenway market inc,90 Glenway St,42.300152,-71.082131
180,glenway market,,42.355492,-71.048611
181,gina grocery store,251 Dudley St,42.328337,-71.079141
182,georgebell's market,246 Dorchester St,42.332488,-71.051281
183,geneva grocery,385 Geneva Ave,42.30127,-71.06822
184,garden halal meat,96 Blackstone St,42.361513,-71.056411
185,fullers market,851 Washington St,42.282107,-71.071541
186,freddy's market,302 Centre St,42.322747,-71.103251
187,four brothers market,3997 Washington St,42.292924,-71.121492
188,foodies south boston llc,230 W Broadway,42.33983,-71.05188
189,foodie's urban market,1421 Washington St,42.34112,-71.07063
190,food pack express,7 Theodore Glynn Way,42.355492,-71.048611
191,fiesta market,178 Bennington St,42.37737,-71.03265
192,fields corner corner super market,1490 Dorchester Ave,42.299947,-71.060031
193,fellowship african market,604 Hyde Park Ave,42.279989,-71.118683
194,father & son market,1437 Commonwealth Ave,42.348967,-71.140221
195,farm to table,613 E Broadway,42.335397,-71.039821
196,famous supermarket,1349 Blue Hill Ave,42.355492,-71.048611
197,family supermarket,205 Humboldt Ave,42.31293,-71.08993
198,family market,334 E 8th St,42.355492,-71.048611
199,family food shop,609 Walk Hill St,42.28093,-71.09785
200,familia grocery,243 Grove St,42.261479,-71.157303
201,fairmont food mart,674 Truman Hwy,42.355492,-71.048611
202,f & c market,184 Bremen St,42.373107,-71.034311
203,evelyn's market,298 Centre St,42.322797,-71.102741
204,ethiopian market,43 Roxbury St,42.329735,-71.085491
205,estrellita food market,290 Meridian St,42.37682,-71.03939
206,erie street market,111 Erie St,42.301547,-71.082921
207,elvalle de la sultana market,121 Bennington St,42.376459,-71.03436
208,eliana market,1909 Columbus Ave,42.317108,-71.098496
209,elcoli market,230 Columbia Rd,42.307594,-71.076289
210,egleston market,3145 Washington St,42.314087,-71.100354
211,eastside market,474 E 8th St,42.355492,-71.048611
212,east broadway market,869 E Broadway,42.335538,-71.029082
213,dudley halal market inc,1127 Harrison Ave,42.330464,-71.082032
214,dolly market,16 Dacia St,42.31454,-71.07767
215,diaz market,446 Hyde Park Ave,42.285148,-71.118652
216,diana's market,170 Cottage St,42.37017,-71.03284
217,diana market,1070 Hyde Park Ave,42.262573,-71.121422
218,despensa de don pedro,105 Chelsea St,42.37245,-71.03549
219,deluca's market,17 Branch St,42.356834,-71.068753
220,deluca's market,11 Charles St,42.35657,-71.06935
221,davey's super market,438 Dudley St,42.32416,-71.073989
222,daily table,450 Washington St,42.295887,-71.071861
223,daily market,110 Savin Hill Ave,42.31179,-71.053719
224,dacia family market inc,16 Dacia St,42.31454,-71.07767
225,d & n market inc,12 S Huntington Ave,42.331717,-71.111711
226,cushman grocery,51 Cushman Rd,42.353587,-71.146381
227,cummins fruits & vegetables,290 Cummins Hwy,42.2797,-71.11799
228,crystal's market,173 Dudley St,42.328407,-71.082261
229,condor market inc,655 Saratoga St,42.382266,-71.020798
230,commonwealth market inc,1090 Commonwealth Ave,42.351776,-71.124061
231,codman square market,331 Centre St,42.32287,-71.105
232,claudia market,160 Humboldt Ave,42.314652,-71.088071
233,cibao market,3936 Washington St,42.294147,-71.119671
234,cheema's market,562 Cambridge St,42.352267,-71.140561
235,chansky's market,1700 Commonwealth Ave,42.34118,-71.146745
236,casali s market,775 Adams St,42.283517,-71.055851
237,casa cuong,629 Tremont St,42.34249,-71.07484
238,carmella's market,86 Cottage St,42.367855,-71.035251
239,camilo market inc,280 Centre St,42.32265,-71.1016
240,cambridge naturals,92 Guest St,42.357344,-71.144455
241,calderon market,140 Princeton St,42.378203,-71.034478
242,c-town studio,314 Main St,42.378167,-71.068001
243,c mart of herald st,50 Herald St,42.34644,-71.06499
244,browns food market,559 Dudley St,42.321177,-71.072391
245,brown market & grocery,194 Dudley St,42.32866,-71.08177
246,"brothers supermarket, inc",46 Washington St,42.373137,-71.065261
247,brothers mini market,802 Tremont St,42.33849,-71.08135
248,brothers market,776 Dudley St,42.317515,-71.065692
249,boston food & farm pbc inc,15 Wakullah St,42.322357,-71.086571
250,bob's grocery store,160 Endicott St,42.365457,-71.057561
251,bnc market,226 Washington St,42.358357,-71.057701
252,blue river food shop,1239 River St,42.256137,-71.123091
253,blue hill star,1366 Blue Hill Ave,42.2767,-71.093147
254,blanco market,71 Day St,42.324577,-71.108315
255,bermudez market,402 Saratoga St,42.37921,-71.02977
256,bella's market,73 Maverick Sq,42.3698,-71.03859
257,beacon hill market,55 Anderson St,42.359207,-71.067851
258,bazaar on cambridge st,424 Cambridge St,42.354507,-71.13441
259,avery food corp,4 Avery St,42.353087,-71.062921
260,angel's market,503 Washington St,42.294097,-71.072121
261,andrea mini market,2 Fairmount Ave,42.255831,-71.120892
262,alves market,77 Stoughton St,42.315827,-71.062651
263,alternative distribution alliance,39 Tower St,42.29896,-71.11199
264,allston market,169 Harvard Ave,42.351307,-71.131792
265,alipio's market,353 Chelsea St,42.378253,-71.028706
266,alex's market iv inc,466 Talbot Ave,42.289008,-71.066549
267,acadeny market inc,1588 Columbus Ave,42.321982,-71.098127
268,abc foods,18 Newmarket Sq,42.329791,-71.064981
269,aaa grocery corp,181 Washington St,42.303377,-71.078772
270,a j's apollos market,918 Morton St,42.280716,-71.083051
271,a goodmart,27 Harrison Ave,42.351815,-71.061444
272,a & f market inc,802 Tremont St,42.33849,-71.08135
273,a & c food market,67 Woodrow Ave,42.288,-71.08097
274,86 market inc,249 Blue Hill Ave,42.316107,-71.078391
275,4 corners market,345 Washington St,42.299414,-71.073984
